[{"OBJECT_NAME":"UNKNOWN","OBJECT_ID":"","EPOCH":"2026-03-25T08:13:33.158496","MEAN_MOTION":12.25254985,"ECCENTRICITY":0.00643483,"INCLINATION":47.2337,"RA_OF_ASC_NODE":326.597,"ARG_OF_PERICENTER":231.4554,"MEAN_ANOMALY":128.0458,"EPHEMERIS_TYPE":0,"CLASSIFICATION_TYPE":"U","NORAD_CAT_ID":270205,"ELEMENT_SET_NO":999,"REV_AT_EPOCH":4376,"BSTAR":0.0024308832,"MEAN_MOTION_DOT":1.85e-6,"MEAN_MOTION_DDOT":0},{"OBJECT_NAME":"UNKNOWN","OBJECT_ID":"","EPOCH":"2026-03-26T08:50:40.011360","MEAN_MOTION":14.32453566,"ECCENTRICITY":0.00522501,"INCLINATION":98.513,"RA_OF_ASC_NODE":129.4083,"ARG_OF_PERICENTER":162.3753,"MEAN_ANOMALY":197.9259,"EPHEMERIS_TYPE":0,"CLASSIFICATION_TYPE":"U","NORAD_CAT_ID":270207,"ELEMENT_SET_NO":999,"REV_AT_EPOCH":32825,"BSTAR":0.00063555657,"MEAN_MOTION_DOT":1.704e-5,"MEAN_MOTION_DDOT":0},{"OBJECT_NAME":"UNKNOWN","OBJECT_ID":"","EPOCH":"2026-03-23T02:50:30.308640","MEAN_MOTION":14.37278445,"ECCENTRICITY":0.00023997,"INCLINATION":86.398,"RA_OF_ASC_NODE":27.8326,"ARG_OF_PERICENTER":89.4174,"MEAN_ANOMALY":270.7298,"EPHEMERIS_TYPE":0,"CLASSIFICATION_TYPE":"U","NORAD_CAT_ID":270209,"ELEMENT_SET_NO":999,"REV_AT_EPOCH":32818,"BSTAR":0.00022330837,"MEAN_MOTION_DOT":6.85e-6,"MEAN_MOTION_DDOT":0},{"OBJECT_NAME":"UNKNOWN","OBJECT_ID":"","EPOCH":"2026-03-28T10:56:35.100384","MEAN_MOTION":14.37344264,"ECCENTRICITY":0.0002647,"INCLINATION":86.4015,"RA_OF_ASC_NODE":353.9287,"ARG_OF_PERICENTER":100.9976,"MEAN_ANOMALY":259.1519,"EPHEMERIS_TYPE":0,"CLASSIFICATION_TYPE":"U","NORAD_CAT_ID":270210,"ELEMENT_SET_NO":999,"REV_AT_EPOCH":32898,"BSTAR":0.0001874013,"MEAN_MOTION_DOT":5.79e-6,"MEAN_MOTION_DDOT":0},{"OBJECT_NAME":"UNKNOWN","OBJECT_ID":"","EPOCH":"2026-03-28T03:04:10.000992","MEAN_MOTION":12.88825232,"ECCENTRICITY":0.02145815,"INCLINATION":82.49,"RA_OF_ASC_NODE":220.2229,"ARG_OF_PERICENTER":111.7708,"MEAN_ANOMALY":250.6383,"EPHEMERIS_TYPE":0,"CLASSIFICATION_TYPE":"U","NORAD_CAT_ID":270211,"ELEMENT_SET_NO":999,"REV_AT_EPOCH":29733,"BSTAR":-8.9169648e-5,"MEAN_MOTION_DOT":-1.2e-7,"MEAN_MOTION_DDOT":0},{"OBJECT_NAME":"UNKNOWN","OBJECT_ID":"","EPOCH":"2026-03-26T16:33:45.587808","MEAN_MOTION":11.82548398,"ECCENTRICITY":0.10476368,"INCLINATION":83.2255,"RA_OF_ASC_NODE":227.0895,"ARG_OF_PERICENTER":255.2292,"MEAN_ANOMALY":93.0558,"EPHEMERIS_TYPE":0,"CLASSIFICATION_TYPE":"U","NORAD_CAT_ID":270212,"ELEMENT_SET_NO":999,"REV_AT_EPOCH":27161,"BSTAR":0.0099084934,"MEAN_MOTION_DOT":2.945e-5,"MEAN_MOTION_DDOT":0},{"OBJECT_NAME":"UNKNOWN","OBJECT_ID":"","EPOCH":"2026-03-24T10:56:31.841376","MEAN_MOTION":13.9966103,"ECCENTRICITY":0.00098992,"INCLINATION":82.5507,"RA_OF_ASC_NODE":355.6502,"ARG_OF_PERICENTER":231.3491,"MEAN_ANOMALY":128.6793,"EPHEMERIS_TYPE":0,"CLASSIFICATION_TYPE":"U","NORAD_CAT_ID":270215,"ELEMENT_SET_NO":999,"REV_AT_EPOCH":32145,"BSTAR":0.0027527912,"MEAN_MOTION_DOT":4.04e-5,"MEAN_MOTION_DDOT":0},{"OBJECT_NAME":"UNKNOWN","OBJECT_ID":"","EPOCH":"2026-03-28T12:48:20.970720","MEAN_MOTION":13.06101003,"ECCENTRICITY":0.00346598,"INCLINATION":90.3268,"RA_OF_ASC_NODE":14.7214,"ARG_OF_PERICENTER":337.6435,"MEAN_ANOMALY":22.3178,"EPHEMERIS_TYPE":0,"CLASSIFICATION_TYPE":"U","NORAD_CAT_ID":270216,"ELEMENT_SET_NO":999,"REV_AT_EPOCH":29804,"BSTAR":0.0025912573,"MEAN_MOTION_DOT":8.6e-6,"MEAN_MOTION_DDOT":0},{"OBJECT_NAME":"UNKNOWN","OBJECT_ID":"","EPOCH":"2026-03-25T16:56:33.551232","MEAN_MOTION":12.56937128,"ECCENTRICITY":0.00292099,"INCLINATION":101.9437,"RA_OF_ASC_NODE":70.3152,"ARG_OF_PERICENTER":20.0729,"MEAN_ANOMALY":340.1487,"EPHEMERIS_TYPE":0,"CLASSIFICATION_TYPE":"U","NORAD_CAT_ID":270219,"ELEMENT_SET_NO":999,"REV_AT_EPOCH":28840,"BSTAR":0.00029646562,"MEAN_MOTION_DOT":3.0e-8,"MEAN_MOTION_DDOT":0},{"OBJECT_NAME":"UNKNOWN","OBJECT_ID":"","EPOCH":"2026-03-25T13:41:26.990592","MEAN_MOTION":14.49248572,"ECCENTRICITY":0.0031164,"INCLINATION":81.2113,"RA_OF_ASC_NODE":25.4915,"ARG_OF_PERICENTER":343.7265,"MEAN_ANOMALY":16.2923,"EPHEMERIS_TYPE":0,"CLASSIFICATION_TYPE":"U","NORAD_CAT_ID":270220,"ELEMENT_SET_NO":999,"REV_AT_EPOCH":32664,"BSTAR":0.0029681444,"MEAN_MOTION_DOT":0.00011406,"MEAN_MOTION_DDOT":0},{"OBJECT_NAME":"UNKNOWN","OBJECT_ID":"","EPOCH":"2026-03-28T05:02:55.948128","MEAN_MOTION":11.85980345,"ECCENTRICITY":0.10514642,"INCLINATION":83.1595,"RA_OF_ASC_NODE":60.2807,"ARG_OF_PERICENTER":56.0928,"MEAN_ANOMALY":313.5677,"EPHEMERIS_TYPE":0,"CLASSIFICATION_TYPE":"U","NORAD_CAT_ID":270221,"ELEMENT_SET_NO":999,"REV_AT_EPOCH":27231,"BSTAR":0.0024180715,"MEAN_MOTION_DOT":7.91e-6,"MEAN_MOTION_DDOT":0},{"OBJECT_NAME":"UNKNOWN","OBJECT_ID":"","EPOCH":"2026-03-23T01:40:35.450400","MEAN_MOTION":12.95579941,"ECCENTRICITY":0.00374444,"INCLINATION":90.2531,"RA_OF_ASC_NODE":4.5138,"ARG_OF_PERICENTER":68.8727,"MEAN_ANOMALY":291.6388,"EPHEMERIS_TYPE":0,"CLASSIFICATION_TYPE":"U","NORAD_CAT_ID":270222,"ELEMENT_SET_NO":999,"REV_AT_EPOCH":29571,"BSTAR":0.0026451536,"MEAN_MOTION_DOT":7.57e-6,"MEAN_MOTION_DDOT":0},{"OBJECT_NAME":"UNKNOWN","OBJECT_ID":"","EPOCH":"2026-03-23T03:54:12.132288","MEAN_MOTION":13.40393289,"ECCENTRICITY":0.05289761,"INCLINATION":73.1439,"RA_OF_ASC_NODE":247.413,"ARG_OF_PERICENTER":53.1051,"MEAN_ANOMALY":311.7323,"EPHEMERIS_TYPE":0,"CLASSIFICATION_TYPE":"U","NORAD_CAT_ID":270224,"ELEMENT_SET_NO":999,"REV_AT_EPOCH":30150,"BSTAR":0.0038965174,"MEAN_MOTION_DOT":4.852e-5,"MEAN_MOTION_DDOT":0},{"OBJECT_NAME":"UNKNOWN","OBJECT_ID":"","EPOCH":"2026-03-15T12:24:58.098240","MEAN_MOTION":11.67014221,"ECCENTRICITY":0.03975532,"INCLINATION":101.2593,"RA_OF_ASC_NODE":165.0489,"ARG_OF_PERICENTER":37.3542,"MEAN_ANOMALY":325.4435,"EPHEMERIS_TYPE":0,"CLASSIFICATION_TYPE":"U","NORAD_CAT_ID":270226,"ELEMENT_SET_NO":999,"REV_AT_EPOCH":26589,"BSTAR":-0.0005558816,"MEAN_MOTION_DOT":-6.8e-7,"MEAN_MOTION_DDOT":0},{"OBJECT_NAME":"UNKNOWN","OBJECT_ID":"","EPOCH":"2026-03-23T12:45:23.062752","MEAN_MOTION":13.91235163,"ECCENTRICITY":0.01418896,"INCLINATION":98.9391,"RA_OF_ASC_NODE":6.0312,"ARG_OF_PERICENTER":131.0378,"MEAN_ANOMALY":230.3147,"EPHEMERIS_TYPE":0,"CLASSIFICATION_TYPE":"U","NORAD_CAT_ID":270229,"ELEMENT_SET_NO":999,"REV_AT_EPOCH":31601,"BSTAR":0.00031658338,"MEAN_MOTION_DOT":3.92e-6,"MEAN_MOTION_DDOT":0},{"OBJECT_NAME":"UNKNOWN","OBJECT_ID":"","EPOCH":"2026-03-21T07:03:44.540928","MEAN_MOTION":12.92259241,"ECCENTRICITY":0.06979422,"INCLINATION":72.9693,"RA_OF_ASC_NODE":280.9608,"ARG_OF_PERICENTER":230.1116,"MEAN_ANOMALY":123.6575,"EPHEMERIS_TYPE":0,"CLASSIFICATION_TYPE":"U","NORAD_CAT_ID":270232,"ELEMENT_SET_NO":999,"REV_AT_EPOCH":29072,"BSTAR":0.0021944462,"MEAN_MOTION_DOT":1.763e-5,"MEAN_MOTION_DDOT":0},{"OBJECT_NAME":"UNKNOWN","OBJECT_ID":"","EPOCH":"2026-03-24T06:11:17.942784","MEAN_MOTION":14.38507956,"ECCENTRICITY":0.00333873,"INCLINATION":98.6271,"RA_OF_ASC_NODE":89.2471,"ARG_OF_PERICENTER":67.2894,"MEAN_ANOMALY":293.1816,"EPHEMERIS_TYPE":0,"CLASSIFICATION_TYPE":"U","NORAD_CAT_ID":270233,"ELEMENT_SET_NO":999,"REV_AT_EPOCH":32308,"BSTAR":0.00015537539,"MEAN_MOTION_DOT":4.33e-6,"MEAN_MOTION_DDOT":0},{"OBJECT_NAME":"UNKNOWN","OBJECT_ID":"","EPOCH":"2026-03-22T16:08:26.997216","MEAN_MOTION":13.59277844,"ECCENTRICITY":0.01442835,"INCLINATION":82.9338,"RA_OF_ASC_NODE":54.8788,"ARG_OF_PERICENTER":165.5466,"MEAN_ANOMALY":194.9877,"EPHEMERIS_TYPE":0,"CLASSIFICATION_TYPE":"U","NORAD_CAT_ID":270235,"ELEMENT_SET_NO":999,"REV_AT_EPOCH":30981,"BSTAR":0.0009851245,"MEAN_MOTION_DOT":7.92e-6,"MEAN_MOTION_DDOT":0},{"OBJECT_NAME":"UNKNOWN","OBJECT_ID":"","EPOCH":"2026-03-23T12:37:49.625184","MEAN_MOTION":12.95524682,"ECCENTRICITY":0.00315659,"INCLINATION":90.2419,"RA_OF_ASC_NODE":1.6138,"ARG_OF_PERICENTER":34.1857,"MEAN_ANOMALY":326.1286,"EPHEMERIS_TYPE":0,"CLASSIFICATION_TYPE":"U","NORAD_CAT_ID":270236,"ELEMENT_SET_NO":999,"REV_AT_EPOCH":29127,"BSTAR":0.0015748837,"MEAN_MOTION_DOT":4.53e-6,"MEAN_MOTION_DDOT":0},{"OBJECT_NAME":"UNKNOWN","OBJECT_ID":"","EPOCH":"2026-03-19T12:08:51.044640","MEAN_MOTION":12.95955416,"ECCENTRICITY":0.0021627,"INCLINATION":90.2528,"RA_OF_ASC_NODE":5.2022,"ARG_OF_PERICENTER":135.4359,"MEAN_ANOMALY":224.8504,"EPHEMERIS_TYPE":0,"CLASSIFICATION_TYPE":"U","NORAD_CAT_ID":270237,"ELEMENT_SET_NO":999,"REV_AT_EPOCH":28965,"BSTAR":-0.0028175455,"MEAN_MOTION_DOT":-7.93e-6,"MEAN_MOTION_DDOT":0},{"OBJECT_NAME":"UNKNOWN","OBJECT_ID":"","EPOCH":"2026-03-23T19:46:18.338304","MEAN_MOTION":12.80836632,"ECCENTRICITY":0.01218486,"INCLINATION":63.5229,"RA_OF_ASC_NODE":290.775,"ARG_OF_PERICENTER":65.2932,"MEAN_ANOMALY":296.069,"EPHEMERIS_TYPE":0,"CLASSIFICATION_TYPE":"U","NORAD_CAT_ID":270238,"ELEMENT_SET_NO":999,"REV_AT_EPOCH":28742,"BSTAR":0.0011144611,"MEAN_MOTION_DOT":1.9e-6,"MEAN_MOTION_DDOT":0},{"OBJECT_NAME":"UNKNOWN","OBJECT_ID":"","EPOCH":"2026-03-22T05:56:32.115552","MEAN_MOTION":12.27508974,"ECCENTRICITY":0.00904196,"INCLINATION":82.4587,"RA_OF_ASC_NODE":268.9013,"ARG_OF_PERICENTER":153.7477,"MEAN_ANOMALY":206.8218,"EPHEMERIS_TYPE":0,"CLASSIFICATION_TYPE":"U","NORAD_CAT_ID":270239,"ELEMENT_SET_NO":999,"REV_AT_EPOCH":27425,"BSTAR":0.016221568,"MEAN_MOTION_DOT":1.879e-5,"MEAN_MOTION_DDOT":0},{"OBJECT_NAME":"UNKNOWN","OBJECT_ID":"","EPOCH":"2026-03-28T12:22:11.937216","MEAN_MOTION":12.64437296,"ECCENTRICITY":0.00473959,"INCLINATION":82.4242,"RA_OF_ASC_NODE":176.5212,"ARG_OF_PERICENTER":37.5185,"MEAN_ANOMALY":322.9199,"EPHEMERIS_TYPE":0,"CLASSIFICATION_TYPE":"U","NORAD_CAT_ID":270240,"ELEMENT_SET_NO":999,"REV_AT_EPOCH":28179,"BSTAR":0.023030789,"MEAN_MOTION_DOT":4.268e-5,"MEAN_MOTION_DDOT":0},{"OBJECT_NAME":"UNKNOWN","OBJECT_ID":"","EPOCH":"2026-02-28T02:14:24.954432","MEAN_MOTION":12.94426915,"ECCENTRICITY":0.00359025,"INCLINATION":90.2485,"RA_OF_ASC_NODE":3.8526,"ARG_OF_PERICENTER":178.6784,"MEAN_ANOMALY":181.4436,"EPHEMERIS_TYPE":0,"CLASSIFICATION_TYPE":"U","NORAD_CAT_ID":270241,"ELEMENT_SET_NO":999,"REV_AT_EPOCH":28659,"BSTAR":0.00038297892,"MEAN_MOTION_DOT":1.14e-6,"MEAN_MOTION_DDOT":0}]
